STARLINK-36124          
1 67121U 25299V   26012.83337963  .00070958  00000+0  16921-2 0  9996
2 67121  42.9997 130.4336 0001568 264.8753 125.7231 15.40665171  5804
STARLINK-36188          
1 67122U 25299W   26012.70270186  .00042638  00000+0  10220-2 0  9996
2 67122  42.9997 131.2460 0001648 265.8261  94.2408 15.40708069  4489
STARLINK-36151          
1 67123U 25299X   26012.71838876  .00055655  00000+0  13283-2 0  9999
2 67123  42.9966 131.3700 0000586 341.8259  18.2577 15.40735905  4488
STARLINK-36195          
1 67124U 25299Y   26012.70718131  .00053404  00000+0  12766-2 0  9995
2 67124  42.9987 131.2796 0002119 246.8901 113.1732 15.40702600  4482
STARLINK-36219          
1 67125U 25299Z   26012.83337963  .00101030  00000+0  23969-2 0  9996
2 67125  42.9995 130.3729 0001310 250.1567 165.2960 15.40663044  5802
STARLINK-36223          
1 67126U 25299AA  26012.83337963  .00080327  00000+0  19123-2 0  9999
2 67126  42.9993 130.3129 0001278 267.2486 173.1238 15.40664302  5801
STARLINK-36164          
1 67127U 25299AB  26012.83337963  .00080661  00000+0  19203-2 0  9990
2 67127  42.9993 130.2215 0000847 283.0452 194.6390 15.40661277  5802
STARLINK-35685          
1 67128U 25299AC  26012.32491861  .00055546  00000+0  13256-2 0  9999
2 67128  42.9965 133.5723 0001116 288.4115  71.6620 15.40738067  4426
STARLINK-36214          
1 67129U 25299AD  26012.83337963  .00077928  00000+0  18567-2 0  9996
2 67129  42.9995 130.1608 0001689 280.6207 221.9776 15.40651561  5804
STARLINK-36194          
1 67130U 25299AE  26012.83337963  .00072108  00000+0  17192-2 0  9996
2 67130  42.9995 130.3433 0001534 290.9225 137.0130 15.40663658  5808
ZIYUAN 3-04 (ZY 3-04)   
1 67131U 25300A   26009.18248613  .00001730  00000+0  80130-4 0  9994
2 67131  97.4889  88.1516 0003945 118.6144 241.5489 15.21458354  3666
CZ-4B R/B               
1 67132U 25300B   26012.82798360  .00124861  68940-5  49292-3 0  9996
2 67132  97.5508  94.0308 0152448 274.3876  83.9982 15.71083688  4347
